{"fetched_at":"2026-03-29T02:12:04Z","count":15717,"tles":[{"name":"GSAT0234 (GALILEO 34)","line1":"1 67162U 25302C   26086.69588354  .00000036  00000+0  00000+0 0  9991","line2":"2 67162  54.2830 104.4494 0003830 286.8102  76.5044  1.70474528  1794","category":"GPS"}]}